NORAD_CAT_ID,OBJECT_NAME,OBJECT_TYPE,EPOCH,MEAN_MOTION,ECCENTRICITY,INCLINATION,RA_OF_ASC_NODE,ARG_OF_PERICENTER,MEAN_ANOMALY,BSTAR,MEAN_MOTION_DOT,MEAN_MOTION_DDOT,TLE_LINE0,TLE_LINE1,TLE_LINE2,SEMIMAJOR_AXIS,PERIOD,APOGEE,PERIGEE,DECAYED
52263.0,STARLINK-3786,PAYLOAD,2024-02-08 19:25:41,15.08836949,0.0001509,53.2176,280.3578,108.0939,252.0218,-9.1321e-05,-1.741e-05,0.0,0 STARLINK-3786,1 52263U 22041C   24039.80951121 -.00001741  00000-0 -91321-4 0  9997,2 52263  53.2176 280.3578 0001509 108.0939 252.0218 15.08836949100859,6917.89,95.438,540.799,538.711,0.0
52263.0,STARLINK-3786,PAYLOAD,2024-02-08 22:36:27,15.08838392,0.0001506,53.2177,279.7632,107.1104,253.0054,-7.5577e-05,-1.491e-05,0.0,0 STARLINK-3786,1 52263U 22041C   24039.94198998 -.00001491  00000-0 -75577-4 0  9994,2 52263  53.2177 279.7632 0001506 107.1104 253.0054 15.08838392 99663,6917.885,95.438,540.792,538.708,0.0
52263.0,STARLINK-3786,PAYLOAD,2024-02-09 19:16:27,15.08892085,0.0001679,53.2172,275.899,81.8259,278.2923,-0.00060835,-9.971e-05,0.0,0 STARLINK-3786,1 52263U 22041C   24040.80309096 -.00009971  00000-0 -60835-3 0  9995,2 52263  53.2172 275.8990 0001679  81.8259 278.2923 15.08892085101007,6917.721,95.434,540.748,538.425,0.0
52263.0,STARLINK-3786,PAYLOAD,2024-02-10 01:38:00,15.08847178,0.0001444,53.2169,274.7065,101.4693,258.6461,0.00011583,1.556e-05,0.0,0 STARLINK-3786,1 52263U 22041C   24041.06805986  .00001556  00000-0  11583-3 0  9998,2 52263  53.2169 274.7065 0001444 101.4693 258.6461 15.08847178101041,6917.858,95.437,540.722,538.725,0.0
52263.0,STARLINK-3786,PAYLOAD,2024-02-10 20:42:38,15.08838808,0.0001313,53.216,271.1321,101.7201,258.3938,6.1723e-05,6.95e-06,0.0,0 STARLINK-3786,1 52263U 22041C   24041.86294989  .00000695  00000-0  61723-4 0  9996,2 52263  53.2160 271.1321 0001313 101.7201 258.3938 15.08838808101160,6917.884,95.438,540.657,538.841,0.0
52263.0,STARLINK-3786,PAYLOAD,2024-02-11 14:11:53,15.0884001,0.0001376,53.2156,267.8622,108.4277,251.6865,-4.43e-05,-9.93e-06,0.0,0 STARLINK-3786,1 52263U 22041C   24042.59159465 -.00000993  00000-0 -44300-4 0  9991,2 52263  53.2156 267.8622 0001376 108.4277 251.6865 15.08840010100068,6917.88,95.438,540.697,538.793,0.0
52263.0,STARLINK-3786,PAYLOAD,2024-02-11 22:08:48,15.08845806,0.0001312,53.2159,266.3791,103.2003,256.9136,9.8762e-06,-1.31e-06,0.0,0 STARLINK-3786,1 52263U 22041C   24042.92278806 -.00000131  00000-0  98762-5 0  9994,2 52263  53.2159 266.3791 0001312 103.2003 256.9136 15.08845806100115,6917.863,95.437,540.635,538.82,0.0
52263.0,STARLINK-3786,PAYLOAD,2024-02-12 14:02:40,15.08835431,0.0001449,53.2164,263.408,108.3097,251.8053,9.4334e-05,1.214e-05,0.0,0 STARLINK-3786,1 52263U 22041C   24043.58519355  .00001214  00000-0  94334-4 0  9996,2 52263  53.2164 263.4080 0001449 108.3097 251.8053 15.08835431100216,6917.894,95.438,540.762,538.757,0.0
52263.0,STARLINK-3786,PAYLOAD,2024-02-12 20:24:13,15.08839273,0.0001454,53.2162,262.2186,111.4396,248.6751,6.7162e-05,7.81e-06,0.0,0 STARLINK-3786,1 52263U 22041C   24043.85015221  .00000781  00000-0  67162-4 0  9996,2 52263  53.2162 262.2186 0001454 111.4396 248.6751 15.08839273101466,6917.883,95.438,540.753,538.742,0.0
52263.0,STARLINK-3786,PAYLOAD,2024-02-12 21:59:36,15.08839717,0.0001358,53.2161,261.9213,104.4437,255.6706,6.9361e-05,8.16e-06,0.0,0 STARLINK-3786,1 52263U 22041C   24043.91639159  .00000816  00000-0  69361-4 0  9997,2 52263  53.2161 261.9213 0001358 104.4437 255.6706 15.08839717100261,6917.881,95.438,540.686,538.807,0.0
52263.0,STARLINK-3786,PAYLOAD,2024-02-13 02:45:44,15.08857051,0.0001442,53.2165,261.0302,78.26,281.8554,0.00021142,3.08e-05,0.0,0 STARLINK-3786,1 52263U 22041C   24044.11509711  .00003080  00000-0  21142-3 0  9990,2 52263  53.2165 261.0302 0001442  78.2600 281.8554 15.08857051101500,6917.828,95.436,540.691,538.696,0.0
52263.0,STARLINK-3786,PAYLOAD,2024-02-13 18:39:33,15.08877785,6.4e-05,53.216,258.0543,111.9986,248.1075,0.00030324,4.547e-05,0.0,0 STARLINK-3786,1 52263U 22041C   24044.77746917  .00004547  00000-0  30324-3 0  9994,2 52263  53.2160 258.0543 0000640 111.9986 248.1075 15.08877785101600,6917.765,95.435,540.073,539.187,0.0
52263.0,STARLINK-3786,PAYLOAD,2024-02-13 21:50:25,15.08795982,0.0001516,53.2162,257.4606,67.4845,292.6307,-0.00037045,-6.172e-05,0.0,0 STARLINK-3786,1 52263U 22041C   24044.91001846 -.00006172  00000-0 -37045-3 0  9990,2 52263  53.2162 257.4606 0001516  67.4845 292.6307 15.08795982100415,6918.015,95.44,540.929,538.831,0.0
52263.0,STARLINK-3786,PAYLOAD,2024-02-13 23:25:49,15.08792927,0.0001565,53.2164,257.1636,66.856,293.2597,-0.0003904,-6.488e-05,0.0,0 STARLINK-3786,1 52263U 22041C   24044.97626236 -.00006488  00000-0 -39040-3 0  9999,2 52263  53.2164 257.1636 0001565  66.8560 293.2597 15.08792927101637,6918.024,95.441,540.972,538.807,0.0
52263.0,STARLINK-3786,PAYLOAD,2024-02-14 13:44:18,15.08795339,7.61e-05,53.216,254.4852,157.5766,202.526,-0.00036346,-6.06e-05,0.0,0 STARLINK-3786,1 52263U 22041C   24045.57243135 -.00006060  00000-0 -36346-3 0  9991,2 52263  53.2160 254.4852 0000761 157.5766 202.5260 15.08795339100512,6918.017,95.44,540.408,539.355,0.0
52263.0,STARLINK-3786,PAYLOAD,2024-02-14 20:05:49,15.08818593,0.0001271,53.2132,253.3001,81.9501,278.1635,-5.4603e-05,-1.156e-05,0.0,0 STARLINK-3786,1 52263U 22041C   24045.83737399 -.00001156  00000-0 -54603-4 0  9998,2 52263  53.2132 253.3001 0001271  81.9501 278.1635 15.08818593101760,6917.946,95.439,540.69,538.932,0.0
52263.0,STARLINK-3786,PAYLOAD,2024-02-15 07:13:31,15.08825406,0.0001574,53.2127,251.2175,111.5611,248.5549,-9.2826e-05,-1.764e-05,0.0,0 STARLINK-3786,1 52263U 22041C   24046.30105430 -.00001764  00000-0 -92826-4 0  9990,2 52263  53.2127 251.2175 0001574 111.5611 248.5549 15.08825406101835,6917.925,95.438,540.879,538.701,0.0
52263.0,STARLINK-3786,PAYLOAD,2024-02-15 13:35:02,15.08848866,8.43e-05,53.2186,250.024,114.1654,245.9427,-0.00016326,-2.886e-05,0.0,0 STARLINK-3786,1 52263U 22041C   24046.56599831 -.00002886  00000-0 -16326-3 0  9996,2 52263  53.2186 250.0240 0000843 114.1654 245.9427 15.08848866100665,6917.853,95.437,540.301,539.135,0.0
52263.0,STARLINK-3786,PAYLOAD,2024-02-15 19:56:34,15.08814764,0.0001124,53.2144,248.8348,99.9259,260.186,0.00053765,8.273e-05,0.0,0 STARLINK-3786,1 52263U 22041C   24046.83095701  .00008273  00000-0  53765-3 0  9995,2 52263  53.2144 248.8348 0001124  99.9259 260.1860 15.08814764101916,6917.958,95.439,540.6,539.045,0.0
52263.0,STARLINK-3786,PAYLOAD,2024-02-16 13:25:48,15.0883577,0.0001181,53.2151,245.5631,138.0125,222.0958,0.00044314,6.771e-05,0.0,0 STARLINK-3786,1 52263U 22041C   24047.55959458  .00006771  00000-0  44314-3 0  9994,2 52263  53.2151 245.5631 0001181 138.0125 222.0958 15.08835770100816,6917.893,95.438,540.575,538.941,0.0
52263.0,STARLINK-3786,PAYLOAD,2024-02-16 19:47:21,15.08845618,9.55e-05,53.2151,244.3717,148.3472,211.7578,0.00026149,3.877e-05,0.0,0 STARLINK-3786,1 52263U 22041C   24047.82455370  .00003877  00000-0  26149-3 0  9998,2 52263  53.2151 244.3717 0000955 148.3472 211.7578 15.08845618102069,6917.863,95.437,540.389,539.068,0.0
52263.0,STARLINK-3786,PAYLOAD,2024-02-17 13:16:36,15.08845723,0.0001056,53.2155,241.1004,112.5189,247.5915,-3.3275e-06,-3.41e-06,0.0,0 STARLINK-3786,1 52263U 22041C   24048.55320215 -.00000341  00000-0 -33275-5 0  9993,2 52263  53.2155 241.1004 0001056 112.5189 247.5915 15.08845723100964,6917.863,95.437,540.458,538.997,0.0
52263.0,STARLINK-3786,PAYLOAD,2024-02-17 19:38:09,15.08842041,7.13e-05,53.2153,239.9137,116.7857,243.3208,-1.4918e-05,-5.25e-06,0.0,0 STARLINK-3786,1 52263U 22041C   24048.81816306 -.00000525  00000-0 -14918-4 0  9999,2 52263  53.2153 239.9137 0000713 116.7857 243.3208 15.08842041102210,6917.874,95.437,540.232,539.246,0.0
52263.0,STARLINK-3786,PAYLOAD,2024-02-18 11:32:00,15.08845435,6.95e-05,53.2164,236.9414,105.8512,254.2556,-1.0048e-05,-4.48e-06,0.0,0 STARLINK-3786,1 52263U 22041C   24049.48055772 -.00000448  00000-0 -10048-4 0  9999,2 52263  53.2164 236.9414 0000695 105.8512 254.2556 15.08845435101107,6917.864,95.437,540.21,539.248,0.0
52263.0,STARLINK-3786,PAYLOAD,2024-02-18 19:28:55,15.08848908,6.74e-05,53.216,235.4546,96.6659,263.4409,1.4429e-05,-5.8e-07,0.0,0 STARLINK-3786,1 52263U 22041C   24049.81175376 -.00000058  00000-0  14429-4 0  9992,2 52263  53.2160 235.4546 0000674  96.6659 263.4409 15.08848908102365,6917.853,95.437,540.184,539.252,0.0
52263.0,STARLINK-3786,PAYLOAD,2024-02-19 05:01:14,15.08846176,6.84e-05,53.2155,233.6703,112.7768,247.3297,-1.8864e-05,-5.88e-06,0.0,0 STARLINK-3786,1 52263U 22041C   24050.20919458 -.00000588  00000-0 -18864-4 0  9990,2 52263  53.2155 233.6703 0000684 112.7768 247.3297 15.08846176101210,6917.862,95.437,540.2,539.253,0.0
52263.0,STARLINK-3786,PAYLOAD,2024-02-19 19:19:43,15.0883731,7.48e-05,53.2159,230.9942,92.7981,267.3097,9.0729e-05,1.156e-05,0.0,0 STARLINK-3786,1 52263U 22041C   24050.80535988  .00001156  00000-0  90729-4 0  9998,2 52263  53.2159 230.9942 0000748  92.7981 267.3097 15.08837310102518,6917.889,95.438,540.271,539.236,0.0
52263.0,STARLINK-3786,PAYLOAD,2024-02-19 20:55:06,15.08838718,7.71e-05,53.2159,230.6969,93.4736,266.6345,9.9359e-05,1.294e-05,0.0,0 STARLINK-3786,1 52263U 22041C   24050.87159825  .00001294  00000-0  99359-4 0  9998,2 52263  53.2159 230.6969 0000771  93.4736 266.6345 15.08838718101314,6917.884,95.438,540.283,539.216,0.0
52263.0,STARLINK-3786,PAYLOAD,2024-02-20 04:52:02,15.08837191,7.75e-05,53.216,229.2097,86.8965,273.2116,6.1355e-05,6.89e-06,0.0,0 STARLINK-3786,1 52263U 22041C   24051.20280103  .00000689  00000-0  61355-4 0  9992,2 52263  53.2160 229.2097 0000775  86.8965 273.2116 15.08837191101365,6917.889,95.438,540.29,539.218,0.0
52263.0,STARLINK-3786,PAYLOAD,2024-02-20 20:45:53,15.08838623,8.87e-05,53.2166,226.2331,67.6191,292.4895,-4.037e-05,-9.3e-06,0.0,0 STARLINK-3786,1 52263U 22041C   24051.86520439 -.00000930  00000-0 -40370-4 0  9998,2 52263  53.2166 226.2331 0000887  67.6191 292.4895 15.08838623101460,6917.885,95.438,540.363,539.136,0.0
